[{"OBJECT_NAME":"APRIZESAT 2","OBJECT_ID":"2004-025A","EPOCH":"2026-03-09T10:28:26.148000","MEAN_MOTION":14.37988294,"ECCENTRICITY":0.01054712,"INCLINATION":98.091,"RA_OF_ASC_NODE":240.1116,"ARG_OF_PERICENTER":190.5785,"MEAN_ANOMALY":169.3185,"EPHEMERIS_TYPE":0,"CLASSIFICATION_TYPE":"U","NORAD_CAT_ID":28366,"ELEMENT_SET_NO":999,"REV_AT_EPOCH":13730,"BSTAR":0.00014374466,"MEAN_MOTION_DOT":4.21e-6,"MEAN_MOTION_DDOT":0},{"OBJECT_NAME":"CZ-4 DEB","OBJECT_ID":"2007-042C","EPOCH":"2026-03-09T11:37:17.780448","MEAN_MOTION":14.62477684,"ECCENTRICITY":0.00878986,"INCLINATION":97.9604,"RA_OF_ASC_NODE":80.2388,"ARG_OF_PERICENTER":186.0336,"MEAN_ANOMALY":173.9815,"EPHEMERIS_TYPE":0,"CLASSIFICATION_TYPE":"U","NORAD_CAT_ID":32473,"ELEMENT_SET_NO":999,"REV_AT_EPOCH":96414,"BSTAR":0.00068289684,"MEAN_MOTION_DOT":3.609e-5,"MEAN_MOTION_DDOT":0}]
